COSMOS 2251 DEB         
1 34793U 93036AAW 17345.84020205  .00000113  00000-0  48373-4 0  9992
2 34793  74.0040 226.0487 0053988 347.1321 140.6113 14.34925042453772
